OBJECT_NAME,OBJECT_ID,EPOCH,MEAN_MOTION,ECCENTRICITY,INCLINATION,RA_OF_ASC_NODE,ARG_OF_PERICENTER,MEAN_ANOMALY,EPHEMERIS_TYPE,CLASSIFICATION_TYPE,NORAD_CAT_ID,ELEMENT_SET_NO,REV_AT_EPOCH,BSTAR,MEAN_MOTION_DOT,MEAN_MOTION_DDOT,SEMIMAJOR_AXIS,SATELLITE_TYPE,ORBITAL_PERIOD,ORBITAL_PERIOD_HOURS,ALTITUDE,PERIGEE,APOGEE
CANX-4,2014-034C,2024-12-31T15:27:25.939008,14.79437493,0.0012028,98.376,209.6642,281.8535,78.1326,0,U,40055,999,56573,0.00062925,4.647e-05,0.0,7009.237258549208,CubeSat,5840.060718399924,1.6222390884444233,638.2372585492076,7000.806547974625,7017.6679691237905
FOX-1A (AO-85),2015-058D,2025-01-01T01:54:13.544352,14.85715402,0.0182443,64.7767,127.208,244.7605,113.4498,0,U,40967,999,3435,0.0012524,0.00014613,0.0,6989.478247096988,CubeSat,5815.383468843761,1.6153842969010448,618.4782470969876,6861.960109113476,7116.9963850805
CORVUS BC4,2018-099K,2025-01-01T01:57:24.169536,15.0584322,0.0010443,97.4856,54.4393,37.1114,323.0833,0,U,43767,999,33213,0.00087524,0.00012672,0.0,6927.055534220498,CubeSat,5737.652282418459,1.5937923006717942,556.055534220498,6919.821610126111,6934.2894583148845
GRBALPHA,2021-022AD,2025-01-01T03:21:35.540352,15.45697971,0.0010713,97.4392,267.4165,132.5483,227.6672,0,U,47959,999,20775,0.0020857,0.00101987,0.0,6807.46499426965,CubeSat,5589.7108945595955,1.5526974707109988,436.46499426964965,6800.1721570212885,6814.757831518011
BRITE-AUSTRIA,2013-009F,2024-12-31T14:04:40.293408,14.36131145,0.0010945,98.3817,188.7842,35.6986,324.493,0,U,39091,999,62059,0.0003262,9.08e-06,0.0,7149.446832423751,CubeSat,6016.166990234976,1.6711574972874932,778.4468324237514,7141.621762865663,7157.27190198184
CUBEBUG-2 (LO-74),2013-066AA,2024-12-31T13:59:05.142624,14.8731204,0.0065123,97.8344,306.7065,348.9371,11.0409,0,U,39440,999,59763,0.0015499,0.00014506,0.0,6984.475188387251,CubeSat,5809.140621357009,1.6136501725991692,613.4751883872514,6938.990190617917,7029.960186156586
SITRO-AIS 31,2024-039D,2025-01-01T02:16:59.752992,15.49969264,0.000829,97.4107,330.3848,210.2593,149.818,0,U,59054,999,4700,0.0018851,0.00106841,0.0,6794.952897329877,CubeSat,5574.307174259788,1.5484186595166076,423.9528973298766,6789.31988137799,6800.585913281763
SITRO-AIS 35,2024-039F,2025-01-01T03:05:15.221760,15.50203349,0.0007933,97.4108,330.4996,209.9924,150.0874,0,U,59056,999,4700,0.0019905,0.00113841,0.0,6794.268842306414,CubeSat,5573.465438434787,1.548184844009663,423.2688423064137,6788.8789488338125,6799.658735779015
SNAP-3 JIMI,2015-058M,2024-12-31T20:41:52.176480,14.92817304,0.0167748,64.769,93.5714,246.9146,111.4209,0,U,40975,999,3447,0.0017478,0.00023812,0.0,6967.292888291544,CubeSat,5787.717468873447,1.6076992969092907,596.2928882915439,6850.417943549031,7084.167833034057
BRITE-AUSTRIA,2013-009F,2024-12-31T14:04:40.293408,14.36131145,0.0010945,98.3817,188.7842,35.6986,324.493,0,U,39091,999,62059,0.0003262,9.08e-06,0.0,7149.446832423751,CubeSat,6016.166990234976,1.6711574972874932,778.4468324237514,7141.621762865663,7157.27190198184
GRBALPHA,2021-022AD,2025-01-01T03:21:35.540352,15.45697971,0.0010713,97.4392,267.4165,132.5483,227.6672,0,U,47959,999,20775,0.0020857,0.00101987,0.0,6807.46499426965,CubeSat,5589.7108945595955,1.5526974707109988,436.46499426964965,6800.1721570212885,6814.757831518011
PROMETHEUS 2-3,2016-067H,2024-12-31T19:48:39.202272,15.31528932,0.0008182,98.0849,196.7966,99.6205,260.5959,0,U,41855,999,44582,0.0020593,0.00063132,0.0,6849.386987497717,CubeSat,5641.4244665391425,1.5670623518164284,478.3869874977172,6843.782819064547,6854.991155930888
DELFI-N3XT,2013-066N,2024-12-31T11:50:07.322784,14.84280922,0.0091025,97.8385,280.3747,165.2058,195.1852,0,U,39428,999,59529,0.0016651,0.00014993,0.0,6993.980832523326,CubeSat,5821.003733279382,1.616945481466495,622.9808325233262,6930.318121995282,7057.64354305137
ROBUSTA-1E (ENSO),2023-185J,2025-01-01T02:57:21.565728,15.37587317,0.0008571,97.3998,73.245,299.1586,60.88,0,U,58470,999,6039,0.00161,0.0005976,0.0,6831.383230897343,CubeSat,5619.196186565163,1.5608878296014341,460.3832308973433,6825.528052330141,6837.238409464545
DELFI-N3XT,2013-066N,2024-12-31T11:50:07.322784,14.84280922,0.0091025,97.8385,280.3747,165.2058,195.1852,0,U,39428,999,59529,0.0016651,0.00014993,0.0,6993.980832523326,CubeSat,5821.003733279382,1.616945481466495,622.9808325233262,6930.318121995282,7057.64354305137
SPACEBEE-6,2018-099BN,2025-01-01T04:25:06.614112,15.86497495,0.0007754,97.4973,82.2169,297.5781,62.4701,0,U,43818,999,33340,0.0042928,0.01206572,0.0,6690.248472028588,CubeSat,5445.961821829011,1.5127671727302807,319.24847202858837,6685.060853363378,6695.436090693799
SHIELDS 1,2018-104B,2024-12-31T18:36:49.996224,15.48903673,0.0009781,85.0201,148.0045,45.8425,314.3634,0,U,43850,999,33662,0.00075666,0.00041035,0.0,6798.068998442889,CubeSat,5578.142100640085,1.549483916844468,427.0689984428891,6791.419807155512,6804.718189730266
PROPCUBE 3,2015-058K,2024-12-31T19:33:57.391776,14.8802174,0.0179738,64.7709,109.3389,247.7802,110.4157,0,U,40973,999,3539,0.0013049,0.00016103,0.0,6982.254218977259,CubeSat,5806.369998463437,1.6128805551287324,611.2542189772594,6856.756578096206,7107.751859858313
ROBUSTA-1E (ENSO),2023-185J,2025-01-01T02:57:21.565728,15.37587317,0.0008571,97.3998,73.245,299.1586,60.88,0,U,58470,999,6039,0.00161,0.0005976,0.0,6831.383230897343,CubeSat,5619.196186565163,1.5608878296014341,460.3832308973433,6825.528052330141,6837.238409464545
SNAP-3 ALICE,2015-058G,2024-12-31T10:15:12.405024,15.09143321,0.0128072,64.7677,62.04,243.1674,115.6305,0,U,40970,999,3540,0.0023826,0.00046161,0.0,6916.953413301826,CubeSat,5725.105540322212,1.5903070945339477,545.953413301826,6828.366607546986,7005.540219056665
